NORAD_CAT_ID,OBJECT_NAME,OBJECT_TYPE,EPOCH,MEAN_MOTION,ECCENTRICITY,INCLINATION,RA_OF_ASC_NODE,ARG_OF_PERICENTER,MEAN_ANOMALY,BSTAR,MEAN_MOTION_DOT,MEAN_MOTION_DDOT,TLE_LINE0,TLE_LINE1,TLE_LINE2,SEMIMAJOR_AXIS,PERIOD,APOGEE,PERIGEE,DECAYED
51745.0,STARLINK-3449,PAYLOAD,2023-09-20 18:27:00,15.08827122,0.0001269,53.2181,43.5092,81.8344,278.2792,-0.00013616,-2.453e-05,0.0,0 STARLINK-3449,1 51745U 22016AH  23263.76875876 -.00002453  00000-0 -13616-3 0  9999,2 51745  53.2181  43.5092 0001269  81.8344 278.2792 15.08827122 88686,6917.92,95.438,540.663,538.907,0.0
51745.0,STARLINK-3449,PAYLOAD,2023-09-21 10:20:51,15.08839469,0.0001159,53.2177,40.536,74.3284,285.7836,9.6524e-05,1.249e-05,0.0,0 STARLINK-3449,1 51745U 22016AH  23264.43115566  .00001249  00000-0  96524-4 0  9997,2 51745  53.2177  40.5360 0001159  74.3284 285.7836 15.08839469 88784,6917.882,95.438,540.549,538.945,0.0
51745.0,STARLINK-3449,PAYLOAD,2023-09-21 13:31:37,15.08845941,0.0001275,53.2186,39.9421,79.4104,280.7032,0.00017156,2.444e-05,0.0,0 STARLINK-3449,1 51745U 22016AH  23264.56363286  .00002444  00000-0  17156-3 0  9996,2 51745  53.2186  39.9421 0001275  79.4104 280.7032 15.08845941 87672,6917.862,95.437,540.609,538.845,0.0
51745.0,STARLINK-3449,PAYLOAD,2023-09-21 16:42:24,15.0885211,0.0001198,53.2176,39.3466,73.2104,286.902,0.00040093,6.101e-05,0.0,0 STARLINK-3449,1 51745U 22016AH  23264.69611167  .00006101  00000-0  40093-3 0  9994,2 51745  53.2176  39.3466 0001198  73.2104 286.9020 15.08852110 88829,6917.843,95.437,540.537,538.88,0.0
51745.0,STARLINK-3449,PAYLOAD,2023-09-22 02:14:43,15.08845943,0.0001268,53.2174,37.5632,75.2707,284.8426,0.00056717,8.752e-05,0.0,0 STARLINK-3449,1 51745U 22016AH  23265.09355611  .00008752  00000-0  56717-3 0  9992,2 51745  53.2174  37.5632 0001268  75.2707 284.8426 15.08845943 88880,6917.862,95.437,540.604,538.85,0.0
51745.0,STARLINK-3449,PAYLOAD,2023-09-22 13:22:25,15.08844601,0.0001301,53.2176,35.483,66.1819,293.9309,0.00033911,5.114e-05,0.0,0 STARLINK-3449,1 51745U 22016AH  23265.55723543  .00005114  00000-0  33911-3 0  9996,2 51745  53.2176  35.4830 0001301  66.1819 293.9309 15.08844601 87824,6917.866,95.437,540.631,538.831,0.0
51745.0,STARLINK-3449,PAYLOAD,2023-09-22 16:33:11,15.08852684,0.0001342,53.2174,34.8871,68.9589,291.1547,0.00041319,6.296e-05,0.0,0 STARLINK-3449,1 51745U 22016AH  23265.68971135  .00006296  00000-0  41319-3 0  9995,2 51745  53.2174  34.8871 0001342  68.9589 291.1547 15.08852684 87845,6917.842,95.437,540.635,538.778,0.0
51745.0,STARLINK-3449,PAYLOAD,2023-09-23 08:27:02,15.08845987,0.0001124,53.2176,31.9125,75.752,284.3597,2.7494e-05,1.5e-06,0.0,0 STARLINK-3449,1 51745U 22016AH  23266.35211137  .00000150  00000-0  27494-4 0  9991,2 51745  53.2176  31.9125 0001124  75.7520 284.3597 15.08845987 89070,6917.862,95.437,540.505,538.95,0.0
51745.0,STARLINK-3449,PAYLOAD,2023-09-23 13:13:11,15.08848164,0.0001187,53.2175,31.0205,87.9679,272.1449,8.4722e-05,1.061e-05,0.0,0 STARLINK-3449,1 51745U 22016AH  23266.55082988  .00001061  00000-0  84722-4 0  9992,2 51745  53.2175  31.0205 0001187  87.9679 272.1449 15.08848164 87976,6917.855,95.437,540.542,538.899,0.0
51745.0,STARLINK-3449,PAYLOAD,2023-09-24 08:17:49,15.08842974,0.0001328,53.2185,27.4547,76.1859,283.9281,0.00013329,1.834e-05,0.0,0 STARLINK-3449,1 51745U 22016AH  23267.34571504  .00001834  00000-0  13329-3 0  9999,2 51745  53.2185  27.4547 0001328  76.1859 283.9281 15.08842974 89229,6917.871,95.437,540.655,538.818,0.0
51745.0,STARLINK-3449,PAYLOAD,2023-09-24 13:03:59,15.08843209,0.0001261,53.2174,26.5622,68.4605,291.6522,0.00022675,3.323e-05,0.0,0 STARLINK-3449,1 51745U 22016AH  23267.54443394  .00003323  00000-0  22675-3 0  9995,2 51745  53.2174  26.5622 0001261  68.4605 291.6522 15.08843209 88124,6917.871,95.437,540.608,538.863,0.0
51745.0,STARLINK-3449,PAYLOAD,2023-09-24 14:39:22,15.08848023,0.0001318,53.2181,26.2636,71.7196,288.3939,0.00033325,5.021e-05,0.0,0 STARLINK-3449,1 51745U 22016AH  23267.61067201  .00005021  00000-0  33325-3 0  9993,2 51745  53.2181  26.2636 0001318  71.7196 288.3939 15.08848023 88134,6917.856,95.437,540.633,538.809,0.0
51745.0,STARLINK-3449,PAYLOAD,2023-09-25 12:54:46,15.08848241,0.0001463,53.2198,22.105,86.8318,273.2841,0.00040195,6.116e-05,0.0,0 STARLINK-3449,1 51745U 22016AH  23268.53803484  .00006116  00000-0  40195-3 0  9995,2 51745  53.2198  22.1050 0001463  86.8318 273.2841 15.08848241 88273,6917.855,95.437,540.732,538.708,0.0
51745.0,STARLINK-3449,PAYLOAD,2023-09-25 14:30:09,15.08854505,0.0001554,53.2199,21.8059,98.996,261.1208,0.00055923,8.627e-05,0.0,0 STARLINK-3449,1 51745U 22016AH  23268.60427266  .00008627  00000-0  55923-3 0  9997,2 51745  53.2199  21.8059 0001554  98.9960 261.1208 15.08854505 89417,6917.836,95.437,540.776,538.626,0.0
51745.0,STARLINK-3449,PAYLOAD,2023-09-26 12:45:33,15.08840703,0.0001471,53.2192,17.6405,92.064,268.052,0.00031809,4.778e-05,0.0,0 STARLINK-3449,1 51745U 22016AH  23269.53163834  .00004778  00000-0  31809-3 0  9998,2 51745  53.2192  17.6405 0001471  92.0640 268.0520 15.08840703 89559,6917.878,95.438,540.761,538.726,0.0
51745.0,STARLINK-3449,PAYLOAD,2023-09-26 14:20:56,15.08840102,0.0001426,53.219,17.3422,85.6732,274.4423,0.0003524,5.325e-05,0.0,0 STARLINK-3449,1 51745U 22016AH  23269.59787896  .00005325  00000-0  35240-3 0  9996,2 51745  53.2190  17.3422 0001426  85.6732 274.4423 15.08840102 88435,6917.88,95.438,540.732,538.759,0.0
51745.0,STARLINK-3449,PAYLOAD,2023-09-26 17:31:42,15.0884343,0.0001393,53.2185,16.7455,84.7435,275.3716,0.00050091,7.694e-05,0.0,0 STARLINK-3449,1 51745U 22016AH  23269.73035862  .00007694  00000-0  50091-3 0  9993,2 51745  53.2185  16.7455 0001393  84.7435 275.3716 15.08843430 88455,6917.87,95.437,540.699,538.771,0.0
51745.0,STARLINK-3449,PAYLOAD,2023-09-27 12:36:20,15.08839529,0.0001487,53.2186,13.1755,78.9753,281.1406,0.00024399,3.597e-05,0.0,0 STARLINK-3449,1 51745U 22016AH  23270.52524183  .00003597  00000-0  24399-3 0  9991,2 51745  53.2186  13.1755 0001487  78.9753 281.1406 15.08839529 88570,6917.882,95.438,540.776,538.718,0.0
51745.0,STARLINK-3449,PAYLOAD,2023-09-27 14:11:43,15.08841045,0.0001455,53.2194,12.885,95.8834,264.2324,0.00046628,7.141e-05,0.0,0 STARLINK-3449,1 51745U 22016AH  23270.59147975  .00007141  00000-0  46628-3 0  9996,2 51745  53.2194  12.8850 0001455  95.8834 264.2324 15.08841045 89718,6917.877,95.437,540.749,538.736,0.0
51745.0,STARLINK-3449,PAYLOAD,2023-09-28 12:27:08,15.08841824,0.0001536,53.2193,8.7235,94.0228,266.094,0.0001455,2.029e-05,0.0,0 STARLINK-3449,1 51745U 22016AH  23271.51884294  .00002029  00000-0  14550-3 0  9990,2 51745  53.2193   8.7235 0001536  94.0228 266.0940 15.08841824 89850,6917.875,95.437,540.802,538.677,0.0
51745.0,STARLINK-3449,PAYLOAD,2023-09-28 14:02:31,15.08843806,0.0001423,53.2185,8.4187,70.604,289.5106,0.00022726,3.331e-05,0.0,0 STARLINK-3449,1 51745U 22016AH  23271.58508227  .00003331  00000-0  22726-3 0  9997,2 51745  53.2185   8.4187 0001423  70.6040 289.5106 15.08843806 88733,6917.869,95.437,540.718,538.749,0.0
51745.0,STARLINK-3449,PAYLOAD,2023-09-28 15:37:54,15.08844882,0.0001443,53.2184,8.1243,70.7448,289.37,0.00025203,3.726e-05,0.0,0 STARLINK-3449,1 51745U 22016AH  23271.65132153  .00003726  00000-0  25203-3 0  9997,2 51745  53.2184   8.1243 0001443  70.7448 289.3700 15.08844882 88741,6917.865,95.437,540.729,538.732,0.0
51745.0,STARLINK-3449,PAYLOAD,2023-09-29 13:53:18,15.08846972,0.000155,53.219,3.9628,74.8969,285.2195,0.00022929,3.364e-05,0.0,0 STARLINK-3449,1 51745U 22016AH  23272.57868204  .00003364  00000-0  22929-3 0  9992,2 51745  53.2190   3.9628 0001550  74.8969 285.2195 15.08846972 88880,6917.859,95.437,540.796,538.652,0.0
51745.0,STARLINK-3449,PAYLOAD,2023-10-01 11:59:28,15.08856343,0.0001581,53.2185,355.3385,96.8065,263.3107,0.00026788,3.98e-05,0.0,0 STARLINK-3449,1 51745U 22016AH  23274.49963267  .00003980  00000-0  26788-3 0  9991,2 51745  53.2185 355.3385 0001581  96.8065 263.3107 15.08856343 90306,6917.83,95.437,540.789,538.602,0.0
51745.0,STARLINK-3449,PAYLOAD,2023-10-01 23:07:10,15.08839984,0.0001455,53.2187,353.2558,89.1758,270.9401,-2.6094e-05,-7.03e-06,0.0,0 STARLINK-3449,1 51745U 22016AH  23274.96331714 -.00000703  00000-0 -26094-4 0  9992,2 51745  53.2187 353.2558 0001455  89.1758 270.9401 15.08839984 90371,6917.88,95.438,540.752,538.739,0.0
51745.0,STARLINK-3449,PAYLOAD,2023-10-02 11:50:16,15.08833059,0.0001702,53.2201,350.8778,97.3264,262.7922,-0.00019714,-3.424e-05,0.0,0 STARLINK-3449,1 51745U 22016AH  23275.49324389 -.00003424  00000-0 -19714-3 0  9994,2 51745  53.2201 350.8778 0001702  97.3264 262.7922 15.08833059 90456,6917.902,95.438,540.944,538.589,0.0
51745.0,STARLINK-3449,PAYLOAD,2023-10-03 11:41:03,15.08850439,0.0001599,53.2186,346.4198,73.3437,286.773,0.00057376,8.858e-05,0.0,0 STARLINK-3449,1 51745U 22016AH  23276.48684421  .00008858  00000-0  57376-3 0  9990,2 51745  53.2186 346.4198 0001599  73.3437 286.7730 15.08850439 90606,6917.848,95.437,540.82,538.607,0.0
51745.0,STARLINK-3449,PAYLOAD,2023-10-04 05:10:18,15.0884864,0.0001342,53.2182,343.148,59.6058,300.5067,0.00043418,6.63e-05,0.0,0 STARLINK-3449,1 51745U 22016AH  23277.21548677  .00006630  00000-0  43418-3 0  9992,2 51745  53.2182 343.1480 0001342  59.6058 300.5067 15.08848640 90713,6917.854,95.437,540.647,538.791,0.0
51745.0,STARLINK-3449,PAYLOAD,2023-10-04 11:31:50,15.0885913,0.0001596,53.2178,341.9582,70.6089,289.5075,0.00072202,0.00011228,0.0,0 STARLINK-3449,1 51745U 22016AH  23277.48044321  .00011228  00000-0  72202-3 0  9990,2 51745  53.2178 341.9582 0001596  70.6089 289.5075 15.08859130 89624,6917.822,95.436,540.791,538.583,0.0
51745.0,STARLINK-3449,PAYLOAD,2023-10-04 21:04:09,15.08850255,0.0001561,53.2177,340.1746,76.0133,284.1032,0.00026182,3.882e-05,0.0,0 STARLINK-3449,1 51745U 22016AH  23277.87788398  .00003882  00000-0  26182-3 0  9995,2 51745  53.2177 340.1746 0001561  76.0133 284.1032 15.08850255 89687,6917.849,95.437,540.794,538.634,0.0
